[
  {
    "name": "ONEWEB-0294",
    "noradId": "49083",
    "line1": "1 49083U 21075J   26182.51060252  .00000089  00000+0  21157-3 0  9994",
    "line2": "2 49083  87.8958 347.8107 0002065 100.3270 259.8092 13.12443061236457"
  },
  {
    "name": "ONEWEB-0295",
    "noradId": "49084",
    "line1": "1 49084U 21075K   26182.46375133  .00000055  00000+0  10960-3 0  9999",
    "line2": "2 49084  87.9132   3.0288 0002136  85.7794 274.3582 13.17648815235476"
  },
  {
    "name": "ONEWEB-0296",
    "noradId": "49085",
    "line1": "1 49085U 21075L   26182.49026713 -.00000233  00000+0 -68375-3 0  9993",
    "line2": "2 49085  87.8960 347.8224 0002181  89.8251 270.3127 13.12443034236458"
  },
  {
    "name": "ONEWEB-0297",
    "noradId": "49086",
    "line1": "1 49086U 21075M   26182.44452911  .00000505  00000+0  13682-2 0  9992",
    "line2": "2 49086  87.8944 347.8405 0001910  90.4740 269.6608 13.12442970237052"
  },
  {
    "name": "ONEWEB-0298",
    "noradId": "49087",
    "line1": "1 49087U 21075N   26182.46811613  .00000009  00000+0 -96219-5 0  9993",
    "line2": "2 49087  87.9134   3.0261 0001822  86.4675 273.6665 13.17648447235508"
  },
  {
    "name": "ONEWEB-0299",
    "noradId": "49088",
    "line1": "1 49088U 21075P   26182.46964253  .00000078  00000+0  16723-3 0  9998",
    "line2": "2 49088  87.9143   3.0073 0001951  85.6115 274.5240 13.17650525235489"
  },
  {
    "name": "ONEWEB-0300",
    "noradId": "49089",
    "line1": "1 49089U 21075Q   26182.51313980  .00000202  00000+0  52492-3 0  9992",
    "line2": "2 49089  87.8958 347.8079 0001559  82.9673 277.1633 13.12443148237080"
  },
  {
    "name": "ONEWEB-0301",
    "noradId": "49090",
    "line1": "1 49090U 21075R   26182.49704010 -.00000291  00000+0 -84510-3 0  9995",
    "line2": "2 49090  87.8956 347.8088 0001498  88.2604 271.8696 13.12443459236449"
  },
  {
    "name": "ONEWEB-0302",
    "noradId": "49091",
    "line1": "1 49091U 21075S   26182.48348176 -.00000419  00000+0 -12014-2 0  9993",
    "line2": "2 49091  87.8959 347.8234 0002111  97.1713 262.9655 13.12441826236429"
  },
  {
    "name": "ONEWEB-0304",
    "noradId": "49092",
    "line1": "1 49092U 21075T   26182.52026976  .00000043  00000+0  76789-4 0  9992",
    "line2": "2 49092  87.9135   3.0181 0001965  86.0867 274.0489 13.17650377235462"
  },
  {
    "name": "ONEWEB-0305",
    "noradId": "49093",
    "line1": "1 49093U 21075U   26182.51352273  .00000059  00000+0  11934-3 0  9991",
    "line2": "2 49093  87.9142   3.0049 0002146  81.2151 278.9223 13.17650707235498"
  },
  {
    "name": "ONEWEB-0308",
    "noradId": "49094",
    "line1": "1 49094U 21075V   26182.47670558 -.00000248  00000+0 -72423-3 0  9998",
    "line2": "2 49094  87.8958 347.8170 0001819  93.0828 267.0509 13.12441209236436"
  },
  {
    "name": "ONEWEB-0309",
    "noradId": "49095",
    "line1": "1 49095U 21075W   26182.51690305  .00000073  00000+0  15582-3 0  9993",
    "line2": "2 49095  87.9134   3.0114 0002255  98.0881 262.0507 13.17650118235463"
  },
  {
    "name": "ONEWEB-0310",
    "noradId": "49096",
    "line1": "1 49096U 21075X   26182.49195855 -.00000326  00000+0 -94172-3 0  9996",
    "line2": "2 49096  87.8949 347.8343 0001849  93.5131 266.6209 13.12443131237063"
  },
  {
    "name": "ONEWEB-0311",
    "noradId": "49097",
    "line1": "1 49097U 21075Y   26182.44770387  .00000009  00000+0 -11256-4 0  9991",
    "line2": "2 49097  87.9134   3.0250 0002030  77.0154 283.1204 13.17651358235507"
  },
  {
    "name": "ONEWEB-0312",
    "noradId": "49098",
    "line1": "1 49098U 21075Z   26182.46289713  .00000051  00000+0  96927-4 0  9996",
    "line2": "2 49098  87.9132   3.0328 0002183  87.6467 272.4914 13.17648393235486"
  },
  {
    "name": "ONEWEB-0313",
    "noradId": "49099",
    "line1": "1 49099U 21075AA  26182.46782846  .00000027  00000+0  35996-4 0  9994",
    "line2": "2 49099  87.9129   3.0372 0001925  86.6267 273.5085 13.17649081235477"
  },
  {
    "name": "ONEWEB-0314",
    "noradId": "49100",
    "line1": "1 49100U 21075AB  26182.51015788  .00000050  00000+0  95654-4 0  9990",
    "line2": "2 49100  87.9146   3.0028 0002198  85.6986 274.4397 13.17650083235455"
  },
  {
    "name": "ONEWEB-0315",
    "noradId": "49101",
    "line1": "1 49101U 21075AC  26182.46485375  .00000176  00000+0  45504-3 0  9995",
    "line2": "2 49101  87.8955 347.8050 0001844  81.0579 279.0759 13.12441237237046"
  },
  {
    "name": "ONEWEB-0316",
    "noradId": "49102",
    "line1": "1 49102U 21075AD  26182.12008682  .00000735  00000+0  18322-2 0  9999",
    "line2": "2 49102  87.9180 332.6841 0001862  96.1542 263.9803 13.18681419239043"
  },
  {
    "name": "ONEWEB-0317",
    "noradId": "49103",
    "line1": "1 49103U 21075AE  26182.46824132  .00000034  00000+0  58340-4 0  9991",
    "line2": "2 49103  87.8957 347.8283 0002086 113.8248 246.3099 13.12441181237068"
  },
  {
    "name": "ONEWEB-0318",
    "noradId": "49104",
    "line1": "1 49104U 21075AF  26182.11671881 -.00000017  00000+0 -74891-4 0  9997",
    "line2": "2 49104  87.9181 332.6867 0001885  89.6729 270.4619 13.18686147239000"
  },
  {
    "name": "ONEWEB-0319",
    "noradId": "49105",
    "line1": "1 49105U 21075AG  26182.44939874  .00000038  00000+0  65039-4 0  9998",
    "line2": "2 49105  87.9132   3.0298 0001862  73.0106 287.1230 13.17650259235481"
  },
  {
    "name": "ONEWEB-0323",
    "noradId": "49106",
    "line1": "1 49106U 21075AH  26182.44961333  .00000484  00000+0  13099-2 0  9996",
    "line2": "2 49106  87.8957 347.8132 0002008  77.2923 282.8430 13.12441661236427"
  },
  {
    "name": "ONEWEB-0329",
    "noradId": "49107",
    "line1": "1 49107U 21075AJ  26182.45783951  .00000012  00000+0 -26954-5 0  9991",
    "line2": "2 49107  87.9133   3.0292 0001998  87.6207 272.5153 13.17650210235468"
  },
  {
    "name": "ONEWEB-0330",
    "noradId": "49108",
    "line1": "1 49108U 21075AK  26182.46731913  .00000059  00000+0  11565-3 0  9994",
    "line2": "2 49108  87.9137   3.0415 0002118  91.1044 269.0331 13.19183686235508"
  },
  {
    "name": "ONEWEB-0292",
    "noradId": "49186",
    "line1": "1 49186U 21083A   26182.10604977 -.00000185  00000+0 -54054-3 0  9991",
    "line2": "2 49186  87.8965 317.4670 0001838  94.1666 265.9674 13.13469456232753"
  },
  {
    "name": "ONEWEB-0303",
    "noradId": "49187",
    "line1": "1 49187U 21083B   26182.11333837 -.00000047  00000+0 -15270-3 0  9991",
    "line2": "2 49187  87.9180 332.6857 0001859  90.0020 270.1325 13.18687521231819"
  },
  {
    "name": "ONEWEB-0306",
    "noradId": "49188",
    "line1": "1 49188U 21083C   26182.48259557 -.00000013  00000+0 -66364-4 0  9992",
    "line2": "2 49188  87.9186 332.6008 0001915 102.2920 257.8426 13.18687883231907"
  },
  {
    "name": "ONEWEB-0307",
    "noradId": "49189",
    "line1": "1 49189U 21083D   26182.10012650 -.00000304  00000+0 -86666-3 0  9992",
    "line2": "2 49189  87.8969 317.4658 0001918  95.1702 264.9646 13.13470308232753"
  },
  {
    "name": "ONEWEB-0320",
    "noradId": "49190",
    "line1": "1 49190U 21083E   26182.12345768 -.00000039  00000+0 -13286-3 0  9998",
    "line2": "2 49190  87.9173 332.6888 0001844  96.5817 263.5525 13.18686410231812"
  },
  {
    "name": "ONEWEB-0321",
    "noradId": "49191",
    "line1": "1 49191U 21083F   26182.29179908  .00000063  00000+0  12329-3 0  9990",
    "line2": "2 49191  87.9193 271.6242 0002080 108.0184 252.1177 13.20773246238697"
  },
  {
    "name": "ONEWEB-0322",
    "noradId": "49192",
    "line1": "1 49192U 21083G   26182.09590153 -.00000464  00000+0 -13065-2 0  9992",
    "line2": "2 49192  87.8966 317.4663 0001687 111.3949 248.7361 13.13469960232742"
  },
  {
    "name": "ONEWEB-0324",
    "noradId": "49193",
    "line1": "1 49193U 21083H   26182.47587029 -.00000021  00000+0 -86685-4 0  9992",
    "line2": "2 49193  87.9187 332.6081 0002026  95.1417 264.9946 13.18685902231883"
  },
  {
    "name": "ONEWEB-0325",
    "noradId": "49194",
    "line1": "1 49194U 21083J   26182.17573399  .00000031  00000+0  46041-4 0  9996",
    "line2": "2 49194  87.9175 332.6744 0001771  95.2025 264.9309 13.18686050231854"
  },
  {
    "name": "ONEWEB-0326",
    "noradId": "49195",
    "line1": "1 49195U 21083K   26182.49456245  .00000075  00000+0  15775-3 0  9999",
    "line2": "2 49195  87.9183 332.6099 0001804  86.6004 273.5334 13.18686132231883"
  },
  {
    "name": "ONEWEB-0327",
    "noradId": "49196",
    "line1": "1 49196U 21083L   26182.49428221 -.00000030  00000+0 -10933-3 0  9997",
    "line2": "2 49196  87.9174 332.6130 0001627  83.9493 276.1824 13.18686172231905"
  },
  {
    "name": "ONEWEB-0328",
    "noradId": "49197",
    "line1": "1 49197U 21083M   26182.31427198 -.00000230  00000+0 -66361-3 0  9999",
    "line2": "2 49197  87.8978 317.3968 0001985  98.0114 262.1240 13.13469337232758"
  },
  {
    "name": "ONEWEB-0331",
    "noradId": "49198",
    "line1": "1 49198U 21083N   26182.18414807  .00000078  00000+0  16436-3 0  9994",
    "line2": "2 49198  87.9183 332.6654 0001900  85.6191 274.5158 13.18687926231850"
  },
  {
    "name": "ONEWEB-0333",
    "noradId": "49199",
    "line1": "1 49199U 21083P   26182.30919364 -.00000168  00000+0 -49600-3 0  9998",
    "line2": "2 49199  87.8969 317.4235 0001816  98.8020 261.3315 13.13469782232764"
  },
  {
    "name": "ONEWEB-0334",
    "noradId": "49200",
    "line1": "1 49200U 21083Q   26182.30609912  .00000054  00000+0  10138-3 0  9992",
    "line2": "2 49200  87.9189 271.6315 0001937 123.4000 236.7319 13.20774550238653"
  },
  {
    "name": "ONEWEB-0335",
    "noradId": "49201",
    "line1": "1 49201U 21083R   26182.45646366  .00000154  00000+0  38548-3 0  9999",
    "line2": "2 49201  87.8969 317.3912 0001913  93.0914 267.0434 13.13471165232792"
  },
  {
    "name": "ONEWEB-0336",
    "noradId": "49202",
    "line1": "1 49202U 21083S   26182.27534645 -.00000022  00000+0 -93845-4 0  9994",
    "line2": "2 49202  87.8966 317.4228 0001972  90.0920 270.0435 13.13470667232768"
  }
]